ORBCOMM FM06            
1 25118U 97084G   26177.59373175  .00001173  00000+0  35469-3 0  9999
2 25118  45.0146   7.4281 0000203  19.8978  22.8163 14.47584566495750
ORBCOMM FM04            
1 25159U 98007C   26177.31267802  .00000785  00000+0  31414-3 0  9993
2 25159 107.9627 188.2011 0041587 309.0884  50.6561 14.35756582477900
ORBCOMM FM19            
1 25415U 98046C   26177.37227411  .00000660  00000+0  25508-3 0  9998
2 25415  44.9920 199.9005 0004366 319.7927  54.6077 14.39508729458102
ORBCOMM FM20            
1 25416U 98046D   26177.39142417  .00000467  00000+0  19920-3 0  9999
2 25416  44.9922 207.8339 0002497 281.0043  79.0524 14.38076067458110
ORBCOMM FM27            
1 25481U 98053G   26177.62838275  .00000766  00000+0  29092-3 0  9992
2 25481  45.0059 290.5114 0001846 228.9736 131.0954 14.39157684451598
ORBCOMM FM32            
1 25982U 99065C   26177.18842122  .00000616  00000+0  25274-3 0  9991
2 25982  45.0140 130.6321 0004279  88.1459 271.9879 14.37141283388382
ORBCOMM FM109           
1 40086U 14040A   26177.61804380  .00000418  00000+0  12460-3 0  9998
2 40086  47.0039  46.8982 0001974 271.3333  88.7326 14.58854922635728
ORBCOMM FM110           
1 41182U 15081D   26176.87007757  .00000594  00000+0  16170-3 0  9999
2 41182  47.0031 320.3877 0002583 128.0732 232.0387 14.58892092558892
ORBCOMM FM118           
1 41183U 15081E   26176.90435560  .00000381  00000+0  11675-3 0  9990
2 41183  47.0054 320.5586 0002319  77.9621 282.1524 14.58886133559005
ORBCOMM FM112           
1 41184U 15081F   26177.52510522  .00000343  00000+0  10883-3 0  9990
2 41184  46.9976 226.0907 0004101 254.9031 105.1401 14.58913881560312
ORBCOMM FM113           
1 41185U 15081G   26177.43354870  .00000279  00000+0  95347-4 0  9990
2 41185  46.9993 226.9043 0002586 256.4243 103.6355 14.58866013560280
ORBCOMM FM108           
1 41187U 15081J   26177.60130585  .00000552  00000+0  15290-3 0  9998
2 41187  47.0041 137.6869 0003171 256.8834 103.1698 14.58884724561457
ORBCOMM FM117           
1 41188U 15081K   26177.56688240  .00000289  00000+0  97330-4 0  9993
2 41188  47.0000 136.4805 0003648 260.3036  99.7438 14.58871605561493
ORBCOMM FM116           
1 41189U 15081L   26177.41023062  .00000393  00000+0  11934-3 0  9994
2 41189  47.0009 227.0123 0000686 156.2927 203.7991 14.58893255560286
